STARLINK-30290          
1 57858U 23141U   26068.90472351 -.00000346  00000+0  44157-6 0  9997
2 57858  53.1595 282.9306 0001198  98.1597 261.9539 15.30188001140367
NUSHSAT1                
1 63211U 25052B   26068.64700493  .00023034  00000+0  74857-3 0  9997
2 63211  97.4095 325.7239 0005501  84.7512 275.4357 15.31903202 54882
